CCSDS_OMM_VERS = 2.0
CREATION_DATE  = 
ORIGINATOR     = 

OBJECT_NAME    = STARLINK-36189
OBJECT_ID      = 2025-293H
CENTER_NAME    = EARTH
REF_FRAME      = TEME
TIME_SYSTEM    = UTC
MEAN_ELEMENT_THEORY = SGP/SGP4

EPOCH          = 2026-01-03T22:00:01.999584
MEAN_MOTION    = 15.52582221
ECCENTRICITY   = .00031034
INCLINATION    = 69.9995
RA_OF_ASC_NODE = 260.7329
ARG_OF_PERICENTER = 264.5048
MEAN_ANOMALY   = 20.6211

EPHEMERIS_TYPE = 0
CLASSIFICATION_TYPE = U
NORAD_CAT_ID   = 67010
ELEMENT_SET_NO = 999
REV_AT_EPOCH   = 372
BSTAR          = -.19915478E-2
MEAN_MOTION_DOT = -.121115E-2
MEAN_MOTION_DDOT = 0

CCSDS_OMM_VERS = 2.0
CREATION_DATE  = 
ORIGINATOR     = 

OBJECT_NAME    = STARLINK-36167
OBJECT_ID      = 2025-293J
CENTER_NAME    = EARTH
REF_FRAME      = TEME
TIME_SYSTEM    = UTC
MEAN_ELEMENT_THEORY = SGP/SGP4

EPOCH          = 2026-01-03T22:00:01.999584
MEAN_MOTION    = 15.52569613
ECCENTRICITY   = .00029966
INCLINATION    = 69.9997
RA_OF_ASC_NODE = 260.7363
ARG_OF_PERICENTER = 267.8751
MEAN_ANOMALY   = 15.3354

EPHEMERIS_TYPE = 0
CLASSIFICATION_TYPE = U
NORAD_CAT_ID   = 67011
ELEMENT_SET_NO = 999
REV_AT_EPOCH   = 366
BSTAR          = -.16452458E-2
MEAN_MOTION_DOT = -.100297E-2
MEAN_MOTION_DDOT = 0

CCSDS_OMM_VERS = 2.0
CREATION_DATE  = 
ORIGINATOR     = 

OBJECT_NAME    = STARLINK-36175
OBJECT_ID      = 2025-293K
CENTER_NAME    = EARTH
REF_FRAME      = TEME
TIME_SYSTEM    = UTC
MEAN_ELEMENT_THEORY = SGP/SGP4

EPOCH          = 2026-01-03T22:00:01.999584
MEAN_MOTION    = 15.52572328
ECCENTRICITY   = .00032347
INCLINATION    = 69.9997
RA_OF_ASC_NODE = 260.7314
ARG_OF_PERICENTER = 267.5392
MEAN_ANOMALY   = 19.5031

EPHEMERIS_TYPE = 0
CLASSIFICATION_TYPE = U
NORAD_CAT_ID   = 67012
ELEMENT_SET_NO = 999
REV_AT_EPOCH   = 366
BSTAR          = -.16982951E-2
MEAN_MOTION_DOT = -.103498E-2
MEAN_MOTION_DDOT = 0

CCSDS_OMM_VERS = 2.0
CREATION_DATE  = 
ORIGINATOR     = 

OBJECT_NAME    = STARLINK-35856
OBJECT_ID      = 2025-293L
CENTER_NAME    = EARTH
REF_FRAME      = TEME
TIME_SYSTEM    = UTC
MEAN_ELEMENT_THEORY = SGP/SGP4

EPOCH          = 2026-01-03T22:00:01.999584
MEAN_MOTION    = 15.52559971
ECCENTRICITY   = .00033274
INCLINATION    = 69.9996
RA_OF_ASC_NODE = 260.7292
ARG_OF_PERICENTER = 266.4982
MEAN_ANOMALY   = 22.4709

EPHEMERIS_TYPE = 0
CLASSIFICATION_TYPE = U
NORAD_CAT_ID   = 67013
ELEMENT_SET_NO = 999
REV_AT_EPOCH   = 366
BSTAR          = -.14911537E-2
MEAN_MOTION_DOT = -.90998E-3
MEAN_MOTION_DDOT = 0

CCSDS_OMM_VERS = 2.0
CREATION_DATE  = 
ORIGINATOR     = 

OBJECT_NAME    = STARLINK-36207
OBJECT_ID      = 2025-293M
CENTER_NAME    = EARTH
REF_FRAME      = TEME
TIME_SYSTEM    = UTC
MEAN_ELEMENT_THEORY = SGP/SGP4

EPOCH          = 2026-01-03T22:00:01.999584
MEAN_MOTION    = 15.52576071
ECCENTRICITY   = .00031688
INCLINATION    = 69.9996
RA_OF_ASC_NODE = 260.7271
ARG_OF_PERICENTER = 273.3026
MEAN_ANOMALY   = 17.5737

EPHEMERIS_TYPE = 0
CLASSIFICATION_TYPE = U
NORAD_CAT_ID   = 67014
ELEMENT_SET_NO = 999
REV_AT_EPOCH   = 372
BSTAR          = -.18038236E-2
MEAN_MOTION_DOT = -.109845E-2
MEAN_MOTION_DDOT = 0

CCSDS_OMM_VERS = 2.0
CREATION_DATE  = 
ORIGINATOR     = 

OBJECT_NAME    = STARLINK-36093
OBJECT_ID      = 2025-293N
CENTER_NAME    = EARTH
REF_FRAME      = TEME
TIME_SYSTEM    = UTC
MEAN_ELEMENT_THEORY = SGP/SGP4

EPOCH          = 2026-01-03T22:00:01.999584
MEAN_MOTION    = 15.52571973
ECCENTRICITY   = .00032313
INCLINATION    = 69.9995
RA_OF_ASC_NODE = 260.7221
ARG_OF_PERICENTER = 266.7586
MEAN_ANOMALY   = 27.9511

EPHEMERIS_TYPE = 0
CLASSIFICATION_TYPE = U
NORAD_CAT_ID   = 67015
ELEMENT_SET_NO = 999
REV_AT_EPOCH   = 366
BSTAR          = -.17016763E-2
MEAN_MOTION_DOT = -.1037E-2
MEAN_MOTION_DDOT = 0

CCSDS_OMM_VERS = 2.0
CREATION_DATE  = 
ORIGINATOR     = 

OBJECT_NAME    = STARLINK-36120
OBJECT_ID      = 2025-293P
CENTER_NAME    = EARTH
REF_FRAME      = TEME
TIME_SYSTEM    = UTC
MEAN_ELEMENT_THEORY = SGP/SGP4

EPOCH          = 2026-01-03T22:00:01.999584
MEAN_MOTION    = 15.52593295
ECCENTRICITY   = .00030818
INCLINATION    = 69.9996
RA_OF_ASC_NODE = 260.7242
ARG_OF_PERICENTER = 265.2712
MEAN_ANOMALY   = 27.5164

EPHEMERIS_TYPE = 0
CLASSIFICATION_TYPE = U
NORAD_CAT_ID   = 67016
ELEMENT_SET_NO = 999
REV_AT_EPOCH   = 366
BSTAR          = -.23118353E-2
MEAN_MOTION_DOT = -.140285E-2
MEAN_MOTION_DDOT = 0

CCSDS_OMM_VERS = 2.0
CREATION_DATE  = 
ORIGINATOR     = 

OBJECT_NAME    = STARLINK-35498
OBJECT_ID      = 2025-293Q
CENTER_NAME    = EARTH
REF_FRAME      = TEME
TIME_SYSTEM    = UTC
MEAN_ELEMENT_THEORY = SGP/SGP4

EPOCH          = 2026-01-03T22:00:01.999584
MEAN_MOTION    = 15.52580519
ECCENTRICITY   = .00031333
INCLINATION    = 69.9996
RA_OF_ASC_NODE = 260.7202
ARG_OF_PERICENTER = 267.1934
MEAN_ANOMALY   = 29.4295

EPHEMERIS_TYPE = 0
CLASSIFICATION_TYPE = U
NORAD_CAT_ID   = 67017
ELEMENT_SET_NO = 999
REV_AT_EPOCH   = 385
BSTAR          = -.19212573E-2
MEAN_MOTION_DOT = -.116901E-2
MEAN_MOTION_DDOT = 0

CCSDS_OMM_VERS = 2.0
CREATION_DATE  = 
ORIGINATOR     = 

OBJECT_NAME    = STARLINK-36106
OBJECT_ID      = 2025-293R
CENTER_NAME    = EARTH
REF_FRAME      = TEME
TIME_SYSTEM    = UTC
MEAN_ELEMENT_THEORY = SGP/SGP4

EPOCH          = 2026-01-03T22:00:01.999584
MEAN_MOTION    = 15.52570049
ECCENTRICITY   = .00033115
INCLINATION    = 69.9996
RA_OF_ASC_NODE = 260.7177
ARG_OF_PERICENTER = 270.6628
MEAN_ANOMALY   = 27.8840

EPHEMERIS_TYPE = 0
CLASSIFICATION_TYPE = U
NORAD_CAT_ID   = 67018
ELEMENT_SET_NO = 999
REV_AT_EPOCH   = 377
BSTAR          = -.17172609E-2
MEAN_MOTION_DOT = -.10463E-2
MEAN_MOTION_DDOT = 0

CCSDS_OMM_VERS = 2.0
CREATION_DATE  = 
ORIGINATOR     = 

OBJECT_NAME    = STARLINK-35688
OBJECT_ID      = 2025-293S
CENTER_NAME    = EARTH
REF_FRAME      = TEME
TIME_SYSTEM    = UTC
MEAN_ELEMENT_THEORY = SGP/SGP4

EPOCH          = 2026-01-03T22:00:01.999584
MEAN_MOTION    = 15.52574962
ECCENTRICITY   = .00032512
INCLINATION    = 69.9996
RA_OF_ASC_NODE = 260.7155
ARG_OF_PERICENTER = 270.9731
MEAN_ANOMALY   = 29.4913

EPHEMERIS_TYPE = 0
CLASSIFICATION_TYPE = U
NORAD_CAT_ID   = 67019
ELEMENT_SET_NO = 999
REV_AT_EPOCH   = 385
BSTAR          = -.18855853E-2
MEAN_MOTION_DOT = -.114744E-2
MEAN_MOTION_DDOT = 0

CCSDS_OMM_VERS = 2.0
CREATION_DATE  = 
ORIGINATOR     = 

OBJECT_NAME    = STARLINK-36172
OBJECT_ID      = 2025-293T
CENTER_NAME    = EARTH
REF_FRAME      = TEME
TIME_SYSTEM    = UTC
MEAN_ELEMENT_THEORY = SGP/SGP4

EPOCH          = 2026-01-03T22:00:01.999584
MEAN_MOTION    = 15.52565424
ECCENTRICITY   = .00032421
INCLINATION    = 69.9996
RA_OF_ASC_NODE = 260.7128
ARG_OF_PERICENTER = 270.8647
MEAN_ANOMALY   = 31.5170

EPHEMERIS_TYPE = 0
CLASSIFICATION_TYPE = U
NORAD_CAT_ID   = 67020
ELEMENT_SET_NO = 999
REV_AT_EPOCH   = 377
BSTAR          = -.16239852E-2
MEAN_MOTION_DOT = -.99008E-3
MEAN_MOTION_DDOT = 0

CCSDS_OMM_VERS = 2.0
CREATION_DATE  = 
ORIGINATOR     = 

OBJECT_NAME    = STARLINK-36184
OBJECT_ID      = 2025-293U
CENTER_NAME    = EARTH
REF_FRAME      = TEME
TIME_SYSTEM    = UTC
MEAN_ELEMENT_THEORY = SGP/SGP4

EPOCH          = 2026-01-03T22:00:01.999584
MEAN_MOTION    = 15.52580234
ECCENTRICITY   = .00031956
INCLINATION    = 69.9997
RA_OF_ASC_NODE = 260.7108
ARG_OF_PERICENTER = 265.7159
MEAN_ANOMALY   = 38.5780

EPHEMERIS_TYPE = 0
CLASSIFICATION_TYPE = U
NORAD_CAT_ID   = 67021
ELEMENT_SET_NO = 999
REV_AT_EPOCH   = 377
BSTAR          = -.19791266E-2
MEAN_MOTION_DOT = -.120365E-2
MEAN_MOTION_DDOT = 0

