STARLINK-36189          
1 67010U 25293H   26003.91668981 -.00121115  00000+0 -19915-2 0  9993
2 67010  69.9995 260.7329 0003103 264.5048  20.6211 15.52582221  3725
STARLINK-36167          
1 67011U 25293J   26003.91668981 -.00100297  00000+0 -16452-2 0  9995
2 67011  69.9997 260.7363 0002996 267.8751  15.3354 15.52569613  3664
STARLINK-36175          
1 67012U 25293K   26003.91668981 -.00103498  00000+0 -16983-2 0  9991
2 67012  69.9997 260.7314 0003234 267.5392  19.5031 15.52572328  3660
STARLINK-35856          
1 67013U 25293L   26003.91668981 -.00090998  00000+0 -14912-2 0  9992
2 67013  69.9996 260.7292 0003327 266.4982  22.4709 15.52559971  3665
STARLINK-36207          
1 67014U 25293M   26003.91668981 -.00109845  00000+0 -18038-2 0  9998
2 67014  69.9996 260.7271 0003168 273.3026  17.5737 15.52576071  3725
STARLINK-36093          
1 67015U 25293N   26003.91668981 -.00103700  00000+0 -17017-2 0  9999
2 67015  69.9995 260.7221 0003231 266.7586  27.9511 15.52571973  3662
STARLINK-36120          
1 67016U 25293P   26003.91668981 -.00140285  00000+0 -23118-2 0  9998
2 67016  69.9996 260.7242 0003081 265.2712  27.5164 15.52593295  3666
STARLINK-35498          
1 67017U 25293Q   26003.91668981 -.00116901  00000+0 -19213-2 0  9998
2 67017  69.9996 260.7202 0003133 267.1934  29.4295 15.52580519  3850
STARLINK-36106          
1 67018U 25293R   26003.91668981 -.00104630  00000+0 -17173-2 0  9998
2 67018  69.9996 260.7177 0003311 270.6628  27.8840 15.52570049  3775
STARLINK-35688          
1 67019U 25293S   26003.91668981 -.00114744  00000+0 -18856-2 0  9995
2 67019  69.9996 260.7155 0003251 270.9731  29.4913 15.52574962  3859
STARLINK-36172          
1 67020U 25293T   26003.91668981 -.00099008  00000+0 -16240-2 0  9997
2 67020  69.9996 260.7128 0003242 270.8647  31.5170 15.52565424  3779
STARLINK-36184          
1 67021U 25293U   26003.91668981 -.00120365  00000+0 -19791-2 0  9993
2 67021  69.9997 260.7108 0003195 265.7159  38.5780 15.52580234  3777
